ACS3                    
1 59588U 24077B   24147.73921105  .00000076  00000+0  12386-3 0  9996
2 59588  97.4065 220.9002 0021045 150.1696 210.0659 13.67681478  4472
